ORBCOMM FM103           
1 40091U 14040F   25236.84066358  .00000509  00000+0  14564-3 0  9997
2 40091  47.0057  53.5588 0002189 238.1736 121.8936 14.58255496574121
ORBCOMM FM114           
1 41179U 15081A   25236.92873245  .00000417  00000+0  12575-3 0  9999
2 41179  47.0040 322.1544 0002806 288.3409  71.7171 14.58297246514507
ORBCOMM FM119           
1 41180U 15081B   25236.71439839  .00000395  00000+0  12128-3 0  9994
2 41180  46.9991 232.4981 0001612 323.4786  36.5989 14.58225769515725
ORBCOMM FM105           
1 41181U 15081C   25236.73242963  .00000105  00000+0  74200-4 0  9996
2 41181  47.0001 244.0284 0002743 270.1208  89.9358 14.45264102510668
ORBCOMM FM110           
1 41182U 15081D   25236.92105742  .00000668  00000+0  17955-3 0  9998
2 41182  47.0031 321.7304 0002427 180.5696 179.5187 14.58303037514375
ORBCOMM FM118           
1 41183U 15081E   25236.61050583  .00000519  00000+0  14774-3 0  9998
2 41183  47.0052 323.4463 0002084 124.5493 235.5589 14.58287352514433
ORBCOMM FM112           
1 41184U 15081F   25236.68614077  .00000509  00000+0  14538-3 0  9997
2 41184  46.9978 231.7237 0002492 293.6422  66.4201 14.58330893515669
ORBCOMM FM113           
1 41185U 15081G   25236.52599136  .00000609  00000+0  16690-3 0  9991
2 41185  46.9993 232.8155 0002208 301.3374  58.7295 14.58328033515622
